[{"OBJECT_NAME":"PRC TEST SPACECRAFT 4","OBJECT_ID":"2026-024A","EPOCH":"2026-03-09T23:05:37.112640","MEAN_MOTION":14.91688392,"ECCENTRICITY":0.00060629,"INCLINATION":49.9868,"RA_OF_ASC_NODE":21.492,"ARG_OF_PERICENTER":1.3709,"MEAN_ANOMALY":358.7249,"EPHEMERIS_TYPE":0,"CLASSIFICATION_TYPE":"U","NORAD_CAT_ID":67689,"ELEMENT_SET_NO":999,"REV_AT_EPOCH":462,"BSTAR":4.4693809e-5,"MEAN_MOTION_DOT":2.1e-6,"MEAN_MOTION_DDOT":0},{"OBJECT_NAME":"NOAA 16 DEB","OBJECT_ID":"2000-055CW","EPOCH":"2026-03-07T07:19:51.843360","MEAN_MOTION":14.8431285,"ECCENTRICITY":0.0024489,"INCLINATION":99.0144,"RA_OF_ASC_NODE":13.4315,"ARG_OF_PERICENTER":245.2612,"MEAN_ANOMALY":114.605,"EPHEMERIS_TYPE":0,"CLASSIFICATION_TYPE":"U","NORAD_CAT_ID":41163,"ELEMENT_SET_NO":999,"REV_AT_EPOCH":53806,"BSTAR":0.0082493,"MEAN_MOTION_DOT":0.00070186,"MEAN_MOTION_DDOT":0}]
